[{"OBJECT_NAME":"SL-8 R/B","OBJECT_ID":"1979-089B","EPOCH":"2026-03-23T04:49:43.228128","MEAN_MOTION":14.42357904,"ECCENTRICITY":0.00169305,"INCLINATION":74.0676,"RA_OF_ASC_NODE":66.0293,"ARG_OF_PERICENTER":237.1198,"MEAN_ANOMALY":122.8329,"EPHEMERIS_TYPE":0,"CLASSIFICATION_TYPE":"U","NORAD_CAT_ID":11574,"ELEMENT_SET_NO":999,"REV_AT_EPOCH":43805,"BSTAR":6.1613308e-5,"MEAN_MOTION_DOT":1.77e-6,"MEAN_MOTION_DDOT":0},{"OBJECT_NAME":"SL-14 R/B","OBJECT_ID":"1980-005B","EPOCH":"2026-03-23T00:23:17.424960","MEAN_MOTION":14.90945002,"ECCENTRICITY":0.00170714,"INCLINATION":82.5119,"RA_OF_ASC_NODE":294.5931,"ARG_OF_PERICENTER":116.5828,"MEAN_ANOMALY":243.7143,"EPHEMERIS_TYPE":0,"CLASSIFICATION_TYPE":"U","NORAD_CAT_ID":11672,"ELEMENT_SET_NO":999,"REV_AT_EPOCH":47847,"BSTAR":5.8315687e-5,"MEAN_MOTION_DOT":6.03e-6,"MEAN_MOTION_DDOT":0},{"OBJECT_NAME":"SL-8 R/B","OBJECT_ID":"1981-003B","EPOCH":"2026-03-22T23:29:26.001888","MEAN_MOTION":15.11536823,"ECCENTRICITY":0.02612975,"INCLINATION":82.9351,"RA_OF_ASC_NODE":277.7302,"ARG_OF_PERICENTER":132.3348,"MEAN_ANOMALY":230.0346,"EPHEMERIS_TYPE":0,"CLASSIFICATION_TYPE":"U","NORAD_CAT_ID":12139,"ELEMENT_SET_NO":999,"REV_AT_EPOCH":31668,"BSTAR":0.00059800415,"MEAN_MOTION_DOT":0.00023695,"MEAN_MOTION_DDOT":0},{"OBJECT_NAME":"SL-3 R/B","OBJECT_ID":"1981-046B","EPOCH":"2026-03-23T05:10:23.996064","MEAN_MOTION":15.42320131,"ECCENTRICITY":0.00185038,"INCLINATION":81.2285,"RA_OF_ASC_NODE":273.4952,"ARG_OF_PERICENTER":334.7957,"MEAN_ANOMALY":25.2381,"EPHEMERIS_TYPE":0,"CLASSIFICATION_TYPE":"U","NORAD_CAT_ID":12465,"ELEMENT_SET_NO":999,"REV_AT_EPOCH":44051,"BSTAR":0.00031644725,"MEAN_MOTION_DOT":0.00013751,"MEAN_MOTION_DDOT":0},{"OBJECT_NAME":"SL-3 R/B","OBJECT_ID":"1981-103B","EPOCH":"2026-03-23T06:06:28.778400","MEAN_MOTION":15.21536484,"ECCENTRICITY":0.00125648,"INCLINATION":81.1609,"RA_OF_ASC_NODE":197.5198,"ARG_OF_PERICENTER":237.6477,"MEAN_ANOMALY":122.3539,"EPHEMERIS_TYPE":0,"CLASSIFICATION_TYPE":"U","NORAD_CAT_ID":12904,"ELEMENT_SET_NO":999,"REV_AT_EPOCH":97529,"BSTAR":0.00031274528,"MEAN_MOTION_DOT":7.083e-5,"MEAN_MOTION_DDOT":0},{"OBJECT_NAME":"SL-3 R/B","OBJECT_ID":"1982-013B","EPOCH":"2026-03-23T04:35:30.162048","MEAN_MOTION":15.22137972,"ECCENTRICITY":0.00233905,"INCLINATION":81.1741,"RA_OF_ASC_NODE":144.9462,"ARG_OF_PERICENTER":132.7229,"MEAN_ANOMALY":227.5977,"EPHEMERIS_TYPE":0,"CLASSIFICATION_TYPE":"U","NORAD_CAT_ID":13068,"ELEMENT_SET_NO":999,"REV_AT_EPOCH":40640,"BSTAR":0.00023733446,"MEAN_MOTION_DOT":5.506e-5,"MEAN_MOTION_DDOT":0},{"OBJECT_NAME":"SL-3 R/B","OBJECT_ID":"1982-039B","EPOCH":"2026-03-23T05:45:48.693888","MEAN_MOTION":15.10155136,"ECCENTRICITY":0.00290088,"INCLINATION":81.1577,"RA_OF_ASC_NODE":200.3382,"ARG_OF_PERICENTER":279.8917,"MEAN_ANOMALY":79.9034,"EPHEMERIS_TYPE":0,"CLASSIFICATION_TYPE":"U","NORAD_CAT_ID":13154,"ELEMENT_SET_NO":999,"REV_AT_EPOCH":38368,"BSTAR":0.0002072048,"MEAN_MOTION_DOT":3.436e-5,"MEAN_MOTION_DDOT":0},{"OBJECT_NAME":"SL-3 R/B","OBJECT_ID":"1982-079B","EPOCH":"2026-03-23T05:59:58.400736","MEAN_MOTION":15.24985475,"ECCENTRICITY":0.00254384,"INCLINATION":81.1486,"RA_OF_ASC_NODE":177.067,"ARG_OF_PERICENTER":120.0935,"MEAN_ANOMALY":240.2826,"EPHEMERIS_TYPE":0,"CLASSIFICATION_TYPE":"U","NORAD_CAT_ID":13403,"ELEMENT_SET_NO":999,"REV_AT_EPOCH":37976,"BSTAR":0.00028353348,"MEAN_MOTION_DOT":7.163e-5,"MEAN_MOTION_DDOT":0},{"OBJECT_NAME":"SL-14 R/B","OBJECT_ID":"1982-092B","EPOCH":"2026-03-23T05:46:57.469152","MEAN_MOTION":14.86678398,"ECCENTRICITY":0.00188155,"INCLINATION":82.567,"RA_OF_ASC_NODE":128.7235,"ARG_OF_PERICENTER":255.0433,"MEAN_ANOMALY":174.602,"EPHEMERIS_TYPE":0,"CLASSIFICATION_TYPE":"U","NORAD_CAT_ID":13553,"ELEMENT_SET_NO":999,"REV_AT_EPOCH":33094,"BSTAR":4.7191659e-5,"MEAN_MOTION_DOT":4.45e-6,"MEAN_MOTION_DDOT":0},{"OBJECT_NAME":"SL-3 R/B","OBJECT_ID":"1983-010B","EPOCH":"2026-03-23T05:14:21.597792","MEAN_MOTION":15.46814812,"ECCENTRICITY":0.00166069,"INCLINATION":81.1053,"RA_OF_ASC_NODE":345.6581,"ARG_OF_PERICENTER":5.8752,"MEAN_ANOMALY":354.2684,"EPHEMERIS_TYPE":0,"CLASSIFICATION_TYPE":"U","NORAD_CAT_ID":13819,"ELEMENT_SET_NO":999,"REV_AT_EPOCH":36003,"BSTAR":0.00037389202,"MEAN_MOTION_DOT":0.00018901,"MEAN_MOTION_DDOT":0},{"OBJECT_NAME":"SL-3 R/B","OBJECT_ID":"1983-075B","EPOCH":"2026-03-23T06:43:01.816032","MEAN_MOTION":15.38731176,"ECCENTRICITY":0.00216148,"INCLINATION":97.6144,"RA_OF_ASC_NODE":87.3752,"ARG_OF_PERICENTER":175.7201,"MEAN_ANOMALY":184.4233,"EPHEMERIS_TYPE":0,"CLASSIFICATION_TYPE":"U","NORAD_CAT_ID":14208,"ELEMENT_SET_NO":999,"REV_AT_EPOCH":33224,"BSTAR":0.00034136875,"MEAN_MOTION_DOT":0.00013089,"MEAN_MOTION_DDOT":0},{"OBJECT_NAME":"COSMOS 1536","OBJECT_ID":"1984-013A","EPOCH":"2026-03-23T07:29:22.115328","MEAN_MOTION":15.2400272,"ECCENTRICITY":0.00128139,"INCLINATION":82.5418,"RA_OF_ASC_NODE":94.3036,"ARG_OF_PERICENTER":229.095,"MEAN_ANOMALY":130.9179,"EPHEMERIS_TYPE":0,"CLASSIFICATION_TYPE":"U","NORAD_CAT_ID":14699,"ELEMENT_SET_NO":999,"REV_AT_EPOCH":27469,"BSTAR":0.00034086331,"MEAN_MOTION_DOT":8.306e-5,"MEAN_MOTION_DDOT":0},{"OBJECT_NAME":"SL-14 R/B","OBJECT_ID":"1984-027B","EPOCH":"2026-03-22T19:46:23.144736","MEAN_MOTION":14.85989545,"ECCENTRICITY":0.00165599,"INCLINATION":82.5403,"RA_OF_ASC_NODE":232.6924,"ARG_OF_PERICENTER":291.8046,"MEAN_ANOMALY":68.1408,"EPHEMERIS_TYPE":0,"CLASSIFICATION_TYPE":"U","NORAD_CAT_ID":14820,"ELEMENT_SET_NO":999,"REV_AT_EPOCH":24958,"BSTAR":5.6581719e-5,"MEAN_MOTION_DOT":5.19e-6,"MEAN_MOTION_DDOT":0},{"OBJECT_NAME":"SL-8 R/B","OBJECT_ID":"1985-006B","EPOCH":"2026-03-23T04:16:19.388352","MEAN_MOTION":14.37793097,"ECCENTRICITY":0.00178915,"INCLINATION":74.0441,"RA_OF_ASC_NODE":236.3263,"ARG_OF_PERICENTER":150.4594,"MEAN_ANOMALY":22.663,"EPHEMERIS_TYPE":0,"CLASSIFICATION_TYPE":"U","NORAD_CAT_ID":15483,"ELEMENT_SET_NO":999,"REV_AT_EPOCH":15596,"BSTAR":0.00013029589,"MEAN_MOTION_DOT":3.67e-6,"MEAN_MOTION_DDOT":0},{"OBJECT_NAME":"SL-12 R/B(2)","OBJECT_ID":"1985-042D","EPOCH":"2026-03-23T04:56:27.603456","MEAN_MOTION":14.21985992,"ECCENTRICITY":0.0032867,"INCLINATION":71.1075,"RA_OF_ASC_NODE":59.1701,"ARG_OF_PERICENTER":105.7444,"MEAN_ANOMALY":342.6727,"EPHEMERIS_TYPE":0,"CLASSIFICATION_TYPE":"U","NORAD_CAT_ID":15772,"ELEMENT_SET_NO":999,"REV_AT_EPOCH":11631,"BSTAR":8.6026204e-5,"MEAN_MOTION_DOT":1.44e-6,"MEAN_MOTION_DDOT":0},{"OBJECT_NAME":"SL-14 R/B","OBJECT_ID":"1985-069B","EPOCH":"2026-03-23T05:00:20.405664","MEAN_MOTION":14.86447608,"ECCENTRICITY":0.0019661,"INCLINATION":82.5302,"RA_OF_ASC_NODE":12.2239,"ARG_OF_PERICENTER":143.686,"MEAN_ANOMALY":216.5696,"EPHEMERIS_TYPE":0,"CLASSIFICATION_TYPE":"U","NORAD_CAT_ID":15945,"ELEMENT_SET_NO":999,"REV_AT_EPOCH":17484,"BSTAR":6.0121149e-5,"MEAN_MOTION_DOT":5.57e-6,"MEAN_MOTION_DDOT":0},{"OBJECT_NAME":"SL-16 R/B","OBJECT_ID":"1985-097B","EPOCH":"2026-03-23T04:35:43.962720","MEAN_MOTION":14.16602182,"ECCENTRICITY":0.00095529,"INCLINATION":71.0012,"RA_OF_ASC_NODE":112.1286,"ARG_OF_PERICENTER":243.7349,"MEAN_ANOMALY":178.8991,"EPHEMERIS_TYPE":0,"CLASSIFICATION_TYPE":"U","NORAD_CAT_ID":16182,"ELEMENT_SET_NO":999,"REV_AT_EPOCH":8914,"BSTAR":0.00013090765,"MEAN_MOTION_DOT":2.13e-6,"MEAN_MOTION_DDOT":0}]
